{
  "type": "FeatureCollection",
  "features": [
    {
      "type": "Feature",
      "properties": {
        "norad_id": 30468,
        "name": "FENGYUN 1C DEB",
        "group": "fengyun-1c-debris",
        "lat": 52.33098558366003,
        "lon": 46.957266533713145,
        "alt_km": 767.5496823576468,
        "timestamp": "2025-12-03T06:58:43.514524+00:00",
        "meta_object_name": "FENGYUN 1C DEB",
        "meta_object_id": "1999-025AGF",
        "meta_epoch": "2025-12-02T17:48:23.126112",
        "meta_mean_motion": 14.20606555,
        "meta_eccentricity": 0.0072707,
        "meta_inclination": 98.9231,
        "meta_ra_of_asc_node": 58.1453,
        "meta_arg_of_pericenter": 68.9986,
        "meta_mean_anomaly": 59.1825,
        "meta_ephemeris_type": 0,
        "meta_classification_type": "U",
        "meta_norad_cat_id": 30468,
        "meta_element_set_no": 999,
        "meta_rev_at_epoch": 96668,
        "meta_bstar": 0.001941,
        "meta_mean_motion_dot": 4.246e-05,
        "meta_mean_motion_ddot": 0,
        "tle_line1": "1 30468U 99025AGF 25336.74193433  .00004246  00000+0  19410-2 0  9991",
        "tle_line2": "2 30468  98.9231  58.1453 0072707  68.9986  59.1825 14.20606555966689"
      },
      "geometry": {
        "type": "Point",
        "coordinates": [
          46.957266533713145,
          52.33098558366003
        ]
      }
    },
    {
      "type": "Feature",
      "properties": {
        "norad_id": 30469,
        "name": "FENGYUN 1C DEB",
        "group": "fengyun-1c-debris",
        "lat": 38.00162556932427,
        "lon": 15.421933196162277,
        "alt_km": 835.4416256862205,
        "timestamp": "2025-12-03T06:58:43.514534+00:00",
        "meta_object_name": "FENGYUN 1C DEB",
        "meta_object_id": "1999-025AGG",
        "meta_epoch": "2025-12-02T13:14:28.450752",
        "meta_mean_motion": 13.96474058,
        "meta_eccentricity": 0.0158495,
        "meta_inclination": 98.4787,
        "meta_ra_of_asc_node": 188.0477,
        "meta_arg_of_pericenter": 198.3076,
        "meta_mean_anomaly": 191.1442,
        "meta_ephemeris_type": 0,
        "meta_classification_type": "U",
        "meta_norad_cat_id": 30469,
        "meta_element_set_no": 999,
        "meta_rev_at_epoch": 95564,
        "meta_bstar": 0.00093894851,
        "meta_mean_motion_dot": 1.403e-05,
        "meta_mean_motion_ddot": 0,
        "tle_line1": "1 30469U 99025AGG 25336.55171818  .00001403  00000+0  93895-3 0  9996",
        "tle_line2": "2 30469  98.4787 188.0477 0158495 198.3076 191.1442 13.96474058955646"
      },
      "geometry": {
        "type": "Point",
        "coordinates": [
          15.421933196162277,
          38.00162556932427
        ]
      }
    },
    {
      "type": "Feature",
      "properties": {
        "norad_id": 30471,
        "name": "FENGYUN 1C DEB",
        "group": "fengyun-1c-debris",
        "lat": 16.080323953084996,
        "lon": 62.139445909379546,
        "alt_km": 853.8718176318371,
        "timestamp": "2025-12-03T06:58:43.514544+00:00",
        "meta_object_name": "FENGYUN 1C DEB",
        "meta_object_id": "1999-025AGJ",
        "meta_epoch": "2025-12-02T05:44:28.869792",
        "meta_mean_motion": 14.13513738,
        "meta_eccentricity": 0.0081497,
        "meta_inclination": 99.0549,
        "meta_ra_of_asc_node": 63.71,
        "meta_arg_of_pericenter": 283.1107,
        "meta_mean_anomaly": 144.297,
        "meta_ephemeris_type": 0,
        "meta_classification_type": "U",
        "meta_norad_cat_id": 30471,
        "meta_element_set_no": 999,
        "meta_rev_at_epoch": 96294,
        "meta_bstar": 0.0020599,
        "meta_mean_motion_dot": 3.958e-05,
        "meta_mean_motion_ddot": 0,
        "tle_line1": "1 30471U 99025AGJ 25336.23922303  .00003958  00000+0  20599-2 0  9994",
        "tle_line2": "2 30471  99.0549  63.7100 0081497 283.1107 144.2970 14.13513738962944"
      },
      "geometry": {
        "type": "Point",
        "coordinates": [
          62.139445909379546,
          16.080323953084996
        ]
      }
    },
    {
      "type": "Feature",
      "properties": {
        "norad_id": 30472,
        "name": "FENGYUN 1C DEB",
        "group": "fengyun-1c-debris",
        "lat": -22.064055623978902,
        "lon": -105.44750222967721,
        "alt_km": 721.3913054167169,
        "timestamp": "2025-12-03T06:58:43.514555+00:00",
        "meta_object_name": "FENGYUN 1C DEB",
        "meta_object_id": "1999-025AGK",
        "meta_epoch": "2025-12-02T05:24:33.792768",
        "meta_mean_motion": 14.53432124,
        "meta_eccentricity": 0.0038884,
        "meta_inclination": 98.6525,
        "meta_ra_of_asc_node": 76.9914,
        "meta_arg_of_pericenter": 111.7313,
        "meta_mean_anomaly": 278.7318,
        "meta_ephemeris_type": 0,
        "meta_classification_type": "U",
        "meta_norad_cat_id": 30472,
        "meta_element_set_no": 999,
        "meta_rev_at_epoch": 97888,
        "meta_bstar": 0.003145,
        "meta_mean_motion_dot": 0.00013203,
        "meta_mean_motion_ddot": 0,
        "tle_line1": "1 30472U 99025AGK 25336.22539112  .00013203  00000+0  31450-2 0  9998",
        "tle_line2": "2 30472  98.6525  76.9914 0038884 111.7313 278.7318 14.53432124978882"
      },
      "geometry": {
        "type": "Point",
        "coordinates": [
          -105.44750222967721,
          -22.064055623978902
        ]
      }
    },
    {
      "type": "Feature",
      "properties": {
        "norad_id": 30474,
        "name": "FENGYUN 1C DEB",
        "group": "fengyun-1c-debris",
        "lat": -76.44478012230414,
        "lon": -164.89188414725996,
        "alt_km": 785.4977616077622,
        "timestamp": "2025-12-03T06:58:43.514565+00:00",
        "meta_object_name": "FENGYUN 1C DEB",
        "meta_object_id": "1999-025AGM",
        "meta_epoch": "2025-12-02T18:38:44.877120",
        "meta_mean_motion": 14.37546713,
        "meta_eccentricity": 0.0023188,
        "meta_inclination": 98.9299,
        "meta_ra_of_asc_node": 55.2786,
        "meta_arg_of_pericenter": 35.8352,
        "meta_mean_anomaly": 86.2218,
        "meta_ephemeris_type": 0,
        "meta_classification_type": "U",
        "meta_norad_cat_id": 30474,
        "meta_element_set_no": 999,
        "meta_rev_at_epoch": 97250,
        "meta_bstar": 0.0027843,
        "meta_mean_motion_dot": 8.333e-05,
        "meta_mean_motion_ddot": 0,
        "tle_line1": "1 30474U 99025AGM 25336.77690830  .00008333  00000+0  27843-2 0  9994",
        "tle_line2": "2 30474  98.9299  55.2786 0023188  35.8352  86.2218 14.37546713972508"
      },
      "geometry": {
        "type": "Point",
        "coordinates": [
          -164.89188414725996,
          -76.44478012230414
        ]
      }
    },
    {
      "type": "Feature",
      "properties": {
        "norad_id": 30475,
        "name": "FENGYUN 1C DEB",
        "group": "fengyun-1c-debris",
        "lat": -8.025643074283385,
        "lon": 20.19753883906191,
        "alt_km": 818.7054132370513,
        "timestamp": "2025-12-03T06:58:43.514575+00:00",
        "meta_object_name": "FENGYUN 1C DEB",
        "meta_object_id": "1999-025AGN",
        "meta_epoch": "2025-12-02T19:26:30.191424",
        "meta_mean_motion": 14.15631267,
        "meta_eccentricity": 0.0042074,
        "meta_inclination": 98.7885,
        "meta_ra_of_asc_node": 18.4738,
        "meta_arg_of_pericenter": 319.7862,
        "meta_mean_anomaly": 103.4863,
        "meta_ephemeris_type": 0,
        "meta_classification_type": "U",
        "meta_norad_cat_id": 30475,
        "meta_element_set_no": 999,
        "meta_rev_at_epoch": 96811,
        "meta_bstar": 0.00092345,
        "meta_mean_motion_dot": 1.78e-05,
        "meta_mean_motion_ddot": 0,
        "tle_line1": "1 30475U 99025AGN 25336.81007166  .00001780  00000+0  92345-3 0  9993",
        "tle_line2": "2 30475  98.7885  18.4738 0042074 319.7862 103.4863 14.15631267968116"
      },
      "geometry": {
        "type": "Point",
        "coordinates": [
          20.19753883906191,
          -8.025643074283385
        ]
      }
    },
    {
      "type": "Feature",
      "properties": {
        "norad_id": 30476,
        "name": "FENGYUN 1C DEB",
        "group": "fengyun-1c-debris",
        "lat": -66.37476051167128,
        "lon": 35.741508392145796,
        "alt_km": 803.3914763622633,
        "timestamp": "2025-12-03T06:58:43.514585+00:00",
        "meta_object_name": "FENGYUN 1C DEB",
        "meta_object_id": "1999-025AGP",
        "meta_epoch": "2025-12-02T14:59:16.946016",
        "meta_mean_motion": 14.20813513,
        "meta_eccentricity": 0.00447529,
        "meta_inclination": 99.126,
        "meta_ra_of_asc_node": 13.4934,
        "meta_arg_of_pericenter": 329.0092,
        "meta_mean_anomaly": 157.1348,
        "meta_ephemeris_type": 0,
        "meta_classification_type": "U",
        "meta_norad_cat_id": 30476,
        "meta_element_set_no": 999,
        "meta_rev_at_epoch": 96701,
        "meta_bstar": 0.0017771044,
        "meta_mean_motion_dot": 3.832e-05,
        "meta_mean_motion_ddot": 0,
        "tle_line1": "1 30476U 99025AGP 25336.62450169  .00003832  00000+0  17771-2 0  9997",
        "tle_line2": "2 30476  99.1260  13.4934 0044752 329.0092 157.1348 14.20813513967010"
      },
      "geometry": {
        "type": "Point",
        "coordinates": [
          35.741508392145796,
          -66.37476051167128
        ]
      }
    }
  ]
}